[{"OBJECT_NAME":"ICEYE-X37","OBJECT_ID":"2024-043E","EPOCH":"2026-03-09T21:28:27.980256","MEAN_MOTION":15.05207146,"ECCENTRICITY":0.00148076,"INCLINATION":97.8149,"RA_OF_ASC_NODE":204.4924,"ARG_OF_PERICENTER":351.2295,"MEAN_ANOMALY":8.867,"EPHEMERIS_TYPE":0,"CLASSIFICATION_TYPE":"U","NORAD_CAT_ID":59102,"ELEMENT_SET_NO":999,"REV_AT_EPOCH":11014,"BSTAR":0.00044484532,"MEAN_MOTION_DOT":6.299e-5,"MEAN_MOTION_DDOT":0},{"OBJECT_NAME":"STARLINK-34876","OBJECT_ID":"2025-191X","EPOCH":"2026-03-09T15:01:24.415392","MEAN_MOTION":15.05648669,"ECCENTRICITY":0.0002783,"INCLINATION":97.6021,"RA_OF_ASC_NODE":301.5241,"ARG_OF_PERICENTER":61.0245,"MEAN_ANOMALY":299.126,"EPHEMERIS_TYPE":0,"CLASSIFICATION_TYPE":"U","NORAD_CAT_ID":65400,"ELEMENT_SET_NO":999,"REV_AT_EPOCH":3026,"BSTAR":0.00011956,"MEAN_MOTION_DOT":1.665e-5,"MEAN_MOTION_DDOT":0}]
